{"type": "FeatureCollection", "features": [ {"type": "Feature", "properties": {"norad_id": 38487, "name": "COSMOS 2251 DEB", "group": "cosmos-2251-debris", "lat": -22.186055017246165, "lon": -132.61990739912446, "alt_km": 505.2195017789518, "timestamp": "2025-12-09T11:33:55.199277+00:00", "meta": {"OBJECT_NAME": "COSMOS 2251 DEB", "OBJECT_ID": "1993-036BTX", "EPOCH": "2025-12-08T10:55:44.562432", "MEAN_MOTION": 15.16822599, "ECCENTRICITY": 0.0022121, "INCLINATION": 73.9745, "RA_OF_ASC_NODE": 42.7971, "ARG_OF_PERICENTER": 215.1063, "MEAN_ANOMALY": 144.8676, "EPHEMERIS_TYPE": 0, "CLASSIFICATION_TYPE": "U", "NORAD_CAT_ID": 38487, "ELEMENT_SET_NO": 999, "REV_AT_EPOCH": 66735, "BSTAR": 0.0022857058, "MEAN_MOTION_DOT": 0.00045475, "MEAN_MOTION_DDOT": 0}, "tle": {"line1": "1 38487U 93036BTX 25342.45537688  .00045475  00000+0  22857-2 0  9993", "line2": "2 38487  73.9745  42.7971 0022121 215.1063 144.8676 15.16822599667354"}}, "geometry": {"type": "Point", "coordinates": [-132.61990739912446, -22.186055017246165]}}, {"type": "Feature", "properties": {"norad_id": 39109, "name": "COSMOS 2251 DEB", "group": "cosmos-2251-debris", "lat": -49.11620764658353, "lon": -147.90015757017696, "alt_km": 628.3278261781616, "timestamp": "2025-12-09T11:33:55.199287+00:00", "meta": {"OBJECT_NAME": "COSMOS 2251 DEB", "OBJECT_ID": "1993-036BTY", "EPOCH": "2025-12-07T09:44:29.277888", "MEAN_MOTION": 14.70664574, "ECCENTRICITY": 0.00591147, "INCLINATION": 74.043, "RA_OF_ASC_NODE": 235.425, "ARG_OF_PERICENTER": 339.9553, "MEAN_ANOMALY": 141.919, "EPHEMERIS_TYPE": 0, "CLASSIFICATION_TYPE": "U", "NORAD_CAT_ID": 39109, "ELEMENT_SET_NO": 999, "REV_AT_EPOCH": 65095, "BSTAR": 0.0010290014, "MEAN_MOTION_DOT": 6.41e-05, "MEAN_MOTION_DDOT": 0}, "tle": {"line1": "1 39109U 93036BTY 25341.40589442  .00006410  00000+0  10290-2 0  9998", "line2": "2 39109  74.0430 235.4250 0059114 339.9553 141.9190 14.70664574650954"}}, "geometry": {"type": "Point", "coordinates": [-147.90015757017696, -49.11620764658353]}}, {"type": "Feature", "properties": {"norad_id": 39110, "name": "COSMOS 2251 DEB", "group": "cosmos-2251-debris", "lat": 63.15735064882141, "lon": -146.76770874435005, "alt_km": 714.2857724545747, "timestamp": "2025-12-09T11:33:55.199297+00:00", "meta": {"OBJECT_NAME": "COSMOS 2251 DEB", "OBJECT_ID": "1993-036BTZ", "EPOCH": "2025-12-03T13:14:13.055136", "MEAN_MOTION": 14.72215365, "ECCENTRICITY": 0.00964609, "INCLINATION": 73.9598, "RA_OF_ASC_NODE": 79.4668, "ARG_OF_PERICENTER": 313.6965, "MEAN_ANOMALY": 59.6182, "EPHEMERIS_TYPE": 0, "CLASSIFICATION_TYPE": "U", "NORAD_CAT_ID": 39110, "ELEMENT_SET_NO": 999, "REV_AT_EPOCH": 62349, "BSTAR": 0.00066560445, "MEAN_MOTION_DOT": 4.484e-05, "MEAN_MOTION_DDOT": 0}, "tle": {"line1": "1 39110U 93036BTZ 25337.55153999  .00004484  00000+0  66560-3 0  9996", "line2": "2 39110  73.9598  79.4668 0096460 313.6965  59.6182 14.72215365623496"}}, "geometry": {"type": "Point", "coordinates": [-146.76770874435005, 63.15735064882141]}}, {"type": "Feature", "properties": {"norad_id": 39111, "name": "COSMOS 2251 DEB", "group": "cosmos-2251-debris", "lat": -72.7999322877512, "lon": -19.994238740387658, "alt_km": 534.6367325471774, "timestamp": "2025-12-09T11:33:55.199307+00:00", "meta": {"OBJECT_NAME": "COSMOS 2251 DEB", "OBJECT_ID": "1993-036BUA", "EPOCH": "2025-12-01T22:58:55.551360", "MEAN_MOTION": 15.11912111, "ECCENTRICITY": 0.00109111, "INCLINATION": 74.0059, "RA_OF_ASC_NODE": 63.5328, "ARG_OF_PERICENTER": 39.1207, "MEAN_ANOMALY": 321.0773, "EPHEMERIS_TYPE": 0, "CLASSIFICATION_TYPE": "U", "NORAD_CAT_ID": 39111, "ELEMENT_SET_NO": 999, "REV_AT_EPOCH": 8982, "BSTAR": 0.0056424119, "MEAN_MOTION_DOT": 0.00098096, "MEAN_MOTION_DDOT": 0}, "tle": {"line1": "1 39111U 93036BUA 25335.95758740  .00098096  00000+0  56424-2 0  9993", "line2": "2 39111  74.0059  63.5328 0010911  39.1207 321.0773 15.11912111 89826"}}, "geometry": {"type": "Point", "coordinates": [-19.994238740387658, -72.7999322877512]}}, {"type": "Feature", "properties": {"norad_id": 39546, "name": "COSMOS 2251 DEB", "group": "cosmos-2251-debris", "lat": -67.88203938129922, "lon": 98.42580102589609, "alt_km": 569.6913829268888, "timestamp": "2025-12-09T11:33:55.199317+00:00", "meta": {"OBJECT_NAME": "COSMOS 2251 DEB", "OBJECT_ID": "1993-036BUC", "EPOCH": "2025-12-08T03:42:31.565664", "MEAN_MOTION": 14.91860989, "ECCENTRICITY": 0.00440411, "INCLINATION": 73.9971, "RA_OF_ASC_NODE": 146.0172, "ARG_OF_PERICENTER": 306.5217, "MEAN_ANOMALY": 53.1912, "EPHEMERIS_TYPE": 0, "CLASSIFICATION_TYPE": "U", "NORAD_CAT_ID": 39546, "ELEMENT_SET_NO": 999, "REV_AT_EPOCH": 64368, "BSTAR": 0.0017169812, "MEAN_MOTION_DOT": 0.0001768, "MEAN_MOTION_DDOT": 0}, "tle": {"line1": "1 39546U 93036BUC 25342.15453201  .00017680  00000+0  17170-2 0  9994", "line2": "2 39546  73.9971 146.0172 0044041 306.5217  53.1912 14.91860989643686"}}, "geometry": {"type": "Point", "coordinates": [98.42580102589609, -67.88203938129922]}}, {"type": "Feature", "properties": {"norad_id": 39547, "name": "COSMOS 2251 DEB", "group": "cosmos-2251-debris", "lat": 33.287568424865334, "lon": -165.80878463938132, "alt_km": 557.4336753216858, "timestamp": "2025-12-09T11:33:55.199337+00:00", "meta": {"OBJECT_NAME": "COSMOS 2251 DEB", "OBJECT_ID": "1993-036BUD", "EPOCH": "2025-12-08T21:19:55.077888", "MEAN_MOTION": 15.02877714, "ECCENTRICITY": 0.0005088, "INCLINATION": 74.0015, "RA_OF_ASC_NODE": 26.2621, "ARG_OF_PERICENTER": 23.5572, "MEAN_ANOMALY": 154.1498, "EPHEMERIS_TYPE": 0, "CLASSIFICATION_TYPE": "U", "NORAD_CAT_ID": 39547, "ELEMENT_SET_NO": 999, "REV_AT_EPOCH": 63967, "BSTAR": 0.002907, "MEAN_MOTION_DOT": 0.0003919, "MEAN_MOTION_DDOT": 0}, "tle": {"line1": "1 39547U 93036BUD 25342.88883192  .00039190  00000+0  29070-2 0  9993", "line2": "2 39547  74.0015  26.2621 0005088  23.5572 154.1498 15.02877714639676"}}, "geometry": {"type": "Point", "coordinates": [-165.80878463938132, 33.287568424865334]}}, {"type": "Feature", "properties": {"norad_id": 39553, "name": "COSMOS 2251 DEB", "group": "cosmos-2251-debris", "lat": 71.92601441895881, "lon": 36.99526532023838, "alt_km": 760.5601850119692, "timestamp": "2025-12-09T11:33:55.199348+00:00", "meta": {"OBJECT_NAME": "COSMOS 2251 DEB", "OBJECT_ID": "1993-036BUK", "EPOCH": "2025-12-07T06:00:50.455872", "MEAN_MOTION": 13.99876591, "ECCENTRICITY": 0.02014092, "INCLINATION": 74.0304, "RA_OF_ASC_NODE": 339.5232, "ARG_OF_PERICENTER": 116.8065, "MEAN_ANOMALY": 245.3825, "EPHEMERIS_TYPE": 0, "CLASSIFICATION_TYPE": "U", "NORAD_CAT_ID": 39553, "ELEMENT_SET_NO": 999, "REV_AT_EPOCH": 75540, "BSTAR": 0.00088887208, "MEAN_MOTION_DOT": 1.532e-05, "MEAN_MOTION_DDOT": 0}, "tle": {"line1": "1 39553U 93036BUK 25341.25058398  .00001532  00000+0  88887-3 0  9993", "line2": "2 39553  74.0304 339.5232 0201409 116.8065 245.3825 13.99876591755403"}}, "geometry": {"type": "Point", "coordinates": [36.99526532023838, 71.92601441895881]}}, {"type": "Feature", "properties": {"norad_id": 39554, "name": "COSMOS 2251 DEB", "group": "cosmos-2251-debris", "lat": -69.48811938290733, "lon": 141.33730173645873, "alt_km": 545.2545222663666, "timestamp": "2025-12-09T11:33:55.199359+00:00", "meta": {"OBJECT_NAME": "COSMOS 2251 DEB", "OBJECT_ID": "1993-036BUL", "EPOCH": "2025-12-09T02:31:49.532160", "MEAN_MOTION": 15.09944131, "ECCENTRICITY": 0.0003049, "INCLINATION": 74.0198, "RA_OF_ASC_NODE": 272.1204, "ARG_OF_PERICENTER": 73.3792, "MEAN_ANOMALY": 298.0934, "EPHEMERIS_TYPE": 0, "CLASSIFICATION_TYPE": "U", "NORAD_CAT_ID": 39554, "ELEMENT_SET_NO": 999, "REV_AT_EPOCH": 64330, "BSTAR": 0.0036843, "MEAN_MOTION_DOT": 0.00060265, "MEAN_MOTION_DDOT": 0}, "tle": {"line1": "1 39554U 93036BUL 25343.10543440  .00060265  00000+0  36843-2 0  9999", "line2": "2 39554  74.0198 272.1204 0003049  73.3792 298.0934 15.09944131643300"}}, "geometry": {"type": "Point", "coordinates": [141.33730173645873, -69.48811938290733]}}, {"type": "Feature", "properties": {"norad_id": 39583, "name": "COSMOS 2251 DEB", "group": "cosmos-2251-debris", "lat": 16.46935551364088, "lon": 68.60596042163561, "alt_km": 780.1702496408516, "timestamp": "2025-12-09T11:33:55.199369+00:00", "meta": {"OBJECT_NAME": "COSMOS 2251 DEB", "OBJECT_ID": "1993-036BUN", "EPOCH": "2025-12-08T00:17:58.189056", "MEAN_MOTION": 14.60283512, "ECCENTRICITY": 0.01370352, "INCLINATION": 73.9395, "RA_OF_ASC_NODE": 256.3131, "ARG_OF_PERICENTER": 10.5711, "MEAN_ANOMALY": 349.8282, "EPHEMERIS_TYPE": 0, "CLASSIFICATION_TYPE": "U", "NORAD_CAT_ID": 39583, "ELEMENT_SET_NO": 999, "REV_AT_EPOCH": 61710, "BSTAR": 0.0025519779, "MEAN_MOTION_DOT": 0.00014063, "MEAN_MOTION_DDOT": 0}, "tle": {"line1": "1 39583U 93036BUN 25342.01247904  .00014063  00000+0  25520-2 0  9991", "line2": "2 39583  73.9395 256.3131 0137035  10.5711 349.8282 14.60283512617104"}}, "geometry": {"type": "Point", "coordinates": [68.60596042163561, 16.46935551364088]}}, {"type": "Feature", "properties": {"norad_id": 39585, "name": "COSMOS 2251 DEB", "group": "cosmos-2251-debris", "lat": 6.242097902871453, "lon": -50.68046642575983, "alt_km": 678.3163396111049, "timestamp": "2025-12-09T11:33:55.199379+00:00", "meta": {"OBJECT_NAME": "COSMOS 2251 DEB", "OBJECT_ID": "1993-036BUQ", "EPOCH": "2025-11-29T06:16:21.203328", "MEAN_MOTION": 14.58611374, "ECCENTRICITY": 0.00652828, "INCLINATION": 74.0406, "RA_OF_ASC_NODE": 326.9733, "ARG_OF_PERICENTER": 91.8532, "MEAN_ANOMALY": 269.0111, "EPHEMERIS_TYPE": 0, "CLASSIFICATION_TYPE": "U", "NORAD_CAT_ID": 39585, "ELEMENT_SET_NO": 999, "REV_AT_EPOCH": 62324, "BSTAR": 0.00023928135, "MEAN_MOTION_DOT": 1.117e-05, "MEAN_MOTION_DDOT": 0}, "tle": {"line1": "1 39585U 93036BUQ 25333.26135652  .00001117  00000+0  23928-3 0  9993", "line2": "2 39585  74.0406 326.9733 0065282  91.8532 269.0111 14.58611374623244"}}, "geometry": {"type": "Point", "coordinates": [-50.68046642575983, 6.242097902871453]}}]}